#dP2020  5 27 18 15  0.00000000      71 __u+U ITR00 FIT  IAC
## 2107 324900.00000000   900.00000000 58996 0.7604166666667
+  117   C06C07C08C09C10C11C12C13C14C16C19C20C21C22C23C24C25
+        C26C27C28C29C30C32C33C34C35C36C37C38C39C40C43C44C45
+        C46E01E02E03E04E05E07E08E09E11E12E13E14E15E18E19E21
+        E24E25E26E27E30E31E33E36G01G02G03G04G05G06G07G08G09
+        G10G11G12G13G14G15G16G17G18G19G20G21G22G23G24G25G26
+        G27G28G29G30G31G32J01J02J03R01R02R03R04R05R07R08R09
+        R11R12R13R14R15R16R17R18R19R20R21R22R23R24R26  0  0
++        12  8  9  8 10  8  7  9  7 11  9  7  7  9  8  8  7
++         8  8  7  8  9  8  8  8  8  9  8 13 13 12 10  8 11
++         9  7  8  8  7  7  8  8  8  8  7  8  8  6  7  8  8
++         7  8  7  7  8  7  7  7  6  7  8  6  8  6  7  7  6
++         8  7  8  8  8  9  8  7  8  8  7  8  8  8  7  6  7
++         7  8  8  7  8  7 11  7  9  7  7  6  8  7  8  7  8
++         6  7  7  7  7  9  7  8  7  9  7  6  7  7  8  0  0
%c M  cc GPS ccc cccc cccc cccc cccc ccccc ccccc ccccc ccccc
%c cc cc ccc ccc cccc cccc cccc cccc ccccc ccccc ccccc ccccc
%f  0.0000000  0.000000000  0.00000000000  0.000000000000000
%f  0.0000000  0.000000000  0.00000000000  0.000000000000000
%i    0    0    0    0      0      0      0      0         0
%i    0    0    0    0      0      0      0      0         0
/* INFORMATION & ANALYSIS CENTER (IAC)      ULTRA-RAPID DATA
/* S/V CLOCKS ARE ALIGNED TO GNSS TIME                      
/* G:C1WC2W R:C1PC2P E:C1XC5X C:C2IC6I J:C1CC2S             
/* PCV:IGS14_2101 OL/AL:FES2004  NONE     YN ORB:CoN CLK:CoN
*  2020 05 28  3 15  0.00000000
PC06  -7793.376011  31632.215500 -26132.765731 999999.999999
PC07 -19095.870734  22663.768535  30020.220026 999999.999999
PC08 -23060.890960  35189.466159  -4661.329612 999999.999999
PC09   4354.632567  39744.450567 -12513.281770 999999.999999
PC10  -1652.019003  26214.341279  33157.971149 999999.999999
PC11 -13908.216688   8856.024581  22575.056020 999999.999999
PC12 -14853.650799 -12511.240066  20058.339077 999999.999999
PC13 -11931.444345  36320.159006 -17982.116543 999999.999999
PC14 -22941.493533   2450.948785 -15620.732770 999999.999999
PC16  -4816.174266  33702.110096 -24674.362001 999999.999999
PC19  15919.863710  -9295.016140  20988.443406 999999.999999
PC20  26218.031907   4107.189436   8711.952155 999999.999999
PC21 -21179.906610 -15619.168326   9269.146963 999999.999999
PC22  -3797.019923 -17592.608338  21328.589673 999999.999999
PC23  -6383.109140  20581.728329  17732.182711 999999.999999
PC24 -23370.124107   4672.828351 -14535.577252 999999.999999
PC25 -20523.481447  18730.570024   2674.527209 999999.999999
PC26 -12752.771541 -10314.686321 -22583.364312 999999.999999
PC27  11926.468782  21201.698704 -13674.214131 999999.999999
PC28    756.138091  27684.155506   3453.403430 999999.999999
PC29  10123.674363 -18332.916869 -18454.428819 999999.999999
PC30  16179.518879   2103.161757 -22641.183640 999999.999999
PC32  21361.906009  15432.315524  -9180.501844 999999.999999
PC33 -15903.406175   9353.402671 -20917.164046 999999.999999
PC34 -16180.720054  -1651.637889  22669.571967 999999.999999
PC35  -1570.954945 -27645.740067  -3620.671634 999999.999999
PC36  21082.483888 -18127.149586  -2421.805005 999999.999999
PC37  11897.808402  11138.034885  22670.873454 999999.999999
PC38 -18682.049501  36607.546141  -9674.290442 999999.999999
PC39   -340.673234  35373.380407 -22844.304734 999999.999999
PC40  -8624.172316  20785.282639  35636.042719 999999.999999
PC43 -10474.682449  18010.557418  18546.332098 999999.999999
PC44 -12580.209534 -20988.462401  13441.197881 999999.999999
PC45   6393.383207 -20529.982262 -17775.003163 999999.999999
PC46  23425.453824  -5203.254876  14233.196610 999999.999999
PE01   5332.724693 -17191.597996 -23500.997112 999999.999999
PE02  -5237.016054  17185.367796  23522.579282 999999.999999
PE03   4274.156367  23332.821370 -17709.092550 999999.999999
PE04 -19335.687013 -22381.240036   1144.516301 999999.999999
PE05 -13503.828803  10600.785006 -24104.255117 999999.999999
PE07  23259.077271   8213.543167  16384.846051 999999.999999
PE08  19620.225086  22155.755029   -916.009563 999999.999999
PE09 -23202.698183  -8038.660925 -16504.434618 999999.999999
PE11 -17032.056108   1249.843851  24165.521108 999999.999999
PE12  -8051.576780 -19788.622174  20497.615010 999999.999999
PE13  16911.296801  -1091.634537 -24267.376527 999999.999999
PE14  19089.935021  20693.927460 -11225.846818 999999.999999
PE15   8211.285643  19538.438192 -20655.292173 999999.999999
PE18  -9577.973741 -24940.515879   -908.662737 999999.999999
PE19  -2404.363403 -22486.149889  19109.863168 999999.999999
PE21  23804.280072 -13208.904310 -11631.023979 999999.999999
PE24 -28637.227015   1061.445016  -7459.902507 999999.999999
PE25 -23886.437537  13149.842503  11517.832642 999999.999999
PE26  15770.573421 -21274.967998 -13224.162861 999999.999999
PE27  28668.218709  -1397.758971   7234.910369 999999.999999
PE30  16290.256087  11477.529069  21874.321430 999999.999999
PE31 -16669.890970 -11172.343173 -21753.516431 999999.999999
PE33   5317.242107 -28709.018179   4912.204120 999999.999999
PE36 -15686.149501  21067.844572  13640.762225 999999.999999
PG01 -14745.295924  21853.750635    502.000747 999999.999999
PG02  17890.296945  -6488.537094 -17868.796353 999999.999999
PG03 -13312.954314  12640.830478 -19213.957985 999999.999999
PG04  -3867.911955  19902.295184 -17129.092868 999999.999999
PG05  26368.937279  -1912.010114   3362.375169 999999.999999
PG06  13602.534284   6057.239775 -21941.479624 999999.999999
PG07  -1303.492766  21648.266262  15298.960149 999999.999999
PG08 -11813.835505   9583.925096  21764.884051 999999.999999
PG09   6175.157536  24412.762607  -8469.304625 999999.999999
PG10 -18155.756907 -11719.616025  15686.244864 999999.999999
PG11 -12419.305209  19144.580456  13350.799975 999999.999999
PG12  14543.269867 -11333.286656 -19295.311961 999999.999999
PG13  15464.181637   -731.773705  21474.902603 999999.999999
PG14 -16905.642692 -14247.738120 -14503.782137 999999.999999
PG15  11140.591868 -11495.078595  20844.618666 999999.999999
PG16 -26195.401734     40.122536   5435.399093 999999.999999
PG17  14311.066356  21214.847368  -6776.923693 999999.999999
PG18   2494.336985 -21900.947202  14795.605972 999999.999999
PG19  16381.119520  15309.486600 -14558.380301 999999.999999
PG20  -6898.148173 -14886.863634  20839.650134 999999.999999
PG21  -3993.441245 -19641.510894  18343.985610 999999.999999
PG22 -20971.335791  10063.893937 -12480.890653 999999.999999
PG23   9490.962851  24127.665283  -4391.245597 999999.999999
PG24  14530.525235 -21804.772068   2681.843197 999999.999999
PG25   3762.760902 -14942.133825 -21851.554253 999999.999999
PG26 -25315.465105  -5185.296705  -6659.606249 999999.999999
PG27 -16704.827006  -2347.566373  20459.408290 999999.999999
PG28  18017.534251  12884.600070  15127.597248 999999.999999
PG29  -1865.339109 -23840.753855 -11573.097020 999999.999999
PG30   7903.557407  14923.539724  20495.941730 999999.999999
PG31 -15105.108907  -4626.474629 -21442.771593 999999.999999
PG32 -16298.180073 -19608.514847  -7622.078108 999999.999999
PJ01 -26700.838293  15931.747495 -23847.391417 999999.999999
PJ02 -30499.720761  27461.979000  14287.404032 999999.999999
PJ03 -25887.154761  25286.843292  26674.713176 999999.999999
PR01 -22385.654099  -9934.360358  -7092.448414 999999.999999
PR02 -12218.408279   4388.276675 -21921.673768 999999.999999
PR03   4329.656129  14473.991309 -20492.029964 999999.999999
PR04  18327.048114  16086.551366  -7451.752570 999999.999999
PR05  21846.272075   8746.599059   9837.141326 999999.999999
PR07  -4903.270245 -14740.104506  20286.387413 999999.999999
PR08 -18235.949328 -16189.547074   7564.931849 999999.999999
PR09  19254.789166 -14545.571000  -8364.700946 999999.999999
PR11 -10196.211155  -6917.111557 -22314.626095 999999.999999
PR12 -21652.819226   4297.689455 -12771.855151 999999.999999
PR13 -21132.847294  13532.239211   4543.707710 999999.999999
PR14  -8172.502573  14563.264119  19285.195183 999999.999999
PR15   9321.418768   7312.000208  22608.710061 999999.999999
PR16  21733.000435  -4943.648073  12271.480080 999999.999999
PR17  -2505.475563  25298.936969   2302.153883 999999.999999
PR18   5102.604590  20600.707436 -14096.749512 999999.999999
PR19   9755.042139   5676.995335 -22878.725116 999999.999999
PR20   9419.073474 -15281.630255 -18141.589965 999999.999999
PR21   2120.665771 -25373.332022  -1342.668919 999999.999999
PR22  -5951.422321 -18970.402582  16057.534500 999999.999999
PR23 -10521.771184   2089.887451  23130.500978 999999.999999
PR24  -9522.958169  15916.589637  17527.589424 999999.999999
PR26  10018.653347 -10886.783758 -20763.184772 999999.999999
EOF
